     2.11           N: GPS NAV DATA                         RINEX VERSION / TYPE
teqc  2019Feb25                         20221121 12:24:53UTCPGM / RUN BY / DATE
OSX ker:10.11.6|Core i5|gcc 4.3 -m64|OSX ker:10.10+|=+      COMMENT
    4.6566D-09  1.4901D-08 -5.9605D-08 -1.1921D-07          ION ALPHA
    8.1920D+04  8.1920D+04 -6.5536D+04 -5.2429D+05          ION BETA
   -9.313225746155D-10-5.329070518201D-15   319488     1539 DELTA-UTC: A0,A1,T,W
                                                            END OF HEADER
 3 09  7  6 11 59 44.0 4.163309931755D-04 5.115907697473D-12 0.000000000000D+00
    7.000000000000D+00 1.231250000000D+01 5.383795685272D-09 1.345884470542D+00
    6.165355443954D-07 1.202303997707D-02 7.428228855133D-06 5.153635576248D+03
    1.295840000000D+05-1.844018697739D-07-2.309047070404D+00 5.774199962616D-08
    9.262836054188D-01 2.195937500000D+02 9.108390599200D-01-8.449994833345D-09
    5.071639825584D-10 1.000000000000D+00 1.539000000000D+03 0.000000000000D+00
    2.000000000000D+00 0.000000000000D+00-4.190951585770D-09 7.000000000000D+00
    1.267380000000D+05 4.000000000000D+00
22 09  7  6 12  0  0.0 1.960881054401D-04-7.958078640513D-13 0.000000000000D+00
    1.100000000000D+01 8.784375000000D+01 4.776627537138D-09 2.983380047034D+00
    4.427507519722D-06 5.143636604771D-03 1.026876270771D-05 5.153663988113D+03
    1.296000000000D+05 7.264316082001D-08-6.559571499911D-02-1.266598701477D-07
    9.398314951827D-01 1.714062500000D+02-1.893985891703D+00-7.894971714404D-09
   -2.253665302777D-10 1.000000000000D+00 1.539000000000D+03 0.000000000000D+00
    2.000000000000D+00 0.000000000000D+00-1.769512891769D-08 1.100000000000D+01
    1.269420000000D+05 4.000000000000D+00
 9 09  7  6 12  0  0.0 6.501842290163D-05 2.046363078989D-12 0.000000000000D+00
    1.050000000000D+02-8.284375000000D+01 4.420541276145D-09-9.919744334997D-01
   -4.066154360771D-06 2.073336334433D-02 2.657994627953D-06 5.153630939484D+03
    1.296000000000D+05-3.054738044739D-07 1.961485031359D+00 2.682209014893D-07
    9.766501603479D-01 3.355000000000D+02 1.490196735258D+00-8.451066306548D-09
   -3.289422731946D-10 1.000000000000D+00 1.539000000000D+03 0.000000000000D+00
    2.000000000000D+00 0.000000000000D+00-5.587935447693D-09 1.050000000000D+02
    1.276020000000D+05 4.000000000000D+00
27 09  7  6 11 59 44.0 6.338907405734D-05 3.183231456205D-12 0.000000000000D+00
    4.000000000000D+00-8.446875000000D+01 4.185888644778D-09 2.360357517633D+00
   -4.520639777184D-06 2.129634970333D-02 9.145587682724D-07 5.153775587082D+03
    1.295840000000D+05 2.346932888031D-07 1.937291968032D+00-1.713633537292D-07
    9.746897360141D-01 3.592812500000D+02-1.576911514546D+00-7.809968173666D-09
   -4.603763193788D-10 1.000000000000D+00 1.539000000000D+03 0.000000000000D+00
    2.000000000000D+00 0.000000000000D+00-4.190951585770D-09 4.000000000000D+00
    1.281480000000D+05 4.000000000000D+00
18 09  7  6 14  0  0.0-4.225084558129D-05 3.183231456205D-12 0.000000000000D+00
    2.800000000000D+01 7.490625000000D+01 4.711267671781D-09-1.221473171375D+00
    4.030764102936D-06 1.063527853694D-02 9.460374712944D-06 5.153612682343D+03
    1.368000000000D+05 2.384185791016D-07-7.125317470073D-02 5.960464477539D-08
    9.421647588183D-01 1.849062500000D+02-2.409271305672D+00-7.931401803292D-09
   -9.178953768839D-11 1.000000000000D+00 1.539000000000D+03 0.000000000000D+00
    2.000000000000D+00 0.000000000000D+00-1.071020960808D-08 2.800000000000D+01
    1.296180000000D+05 4.000000000000D+00
15 09  7  6 14  0  0.0-3.064610064030D-04-2.728484105319D-12 0.000000000000D+00
    3.500000000000D+01 1.070312500000D+02 4.844487506636D-09-2.893055558348D+00
    5.619600415230D-06 1.465886249207D-03 3.006309270859D-06 5.153633104324D+03
    1.368000000000D+05-6.332993507385D-08 9.322376556688D-01 2.793967723846D-08
    9.561926203007D-01 3.190625000000D+02-4.693735279772D-01-8.248557871259D-09
    2.417957860507D-10 1.000000000000D+00 1.539000000000D+03 0.000000000000D+00
    2.000000000000D+00 0.000000000000D+00-9.778887033463D-09 3.500000000000D+01
    1.296180000000D+05 4.000000000000D+00
26 09  7  6 13 59 44.0 6.452016532421D-05 3.410605131648D-13 0.000000000000D+00
    4.500000000000D+01 8.415625000000D+01 4.114099940205D-09 9.216630664405D-01
    4.645437002182D-06 2.033248508815D-02 3.552064299583D-06 5.154904680252D+03
    1.367840000000D+05-2.197921276093D-07 1.003275542956D+00 1.918524503708D-07
    9.925104144998D-01 3.316875000000D+02 1.022941560936D+00-8.273201754918D-09
    2.892977646988D-11 1.000000000000D+00 1.539000000000D+03 0.000000000000D+00
    2.000000000000D+00 0.000000000000D+00-6.519258022308D-09 4.500000000000D+01
    1.296180000000D+05 4.000000000000D+00
27 09  7  6 13 59 44.0 6.341189146042D-05 3.183231456205D-12 0.000000000000D+00
    2.300000000000D+01-8.559375000000D+01 4.327323107520D-09-2.872707573310D+00
   -4.239380359650D-06 2.129686099943D-02 9.704381227493D-07 5.153774677277D+03
    1.367840000000D+05 3.799796104431D-07 1.937234127177D+00 1.490116119385D-07
    9.746870427819D-01 3.633125000000D+02-1.576913852289D+00-7.861398887390D-09
   -1.964367538078D-10 1.000000000000D+00 1.539000000000D+03 0.000000000000D+00
    2.000000000000D+00 0.000000000000D+00-4.190951585770D-09 2.300000000000D+01
    1.296180000000D+05 4.000000000000D+00
 9 09  7  6 14  0  0.0 6.503332406282D-05 2.046363078989D-12 0.000000000000D+00
    1.060000000000D+02-7.496875000000D+01 4.435541900981D-09 5.826812657564D-02
   -3.773719072342D-06 2.073380956426D-02 2.546235918999D-06 5.153632377625D+03
    1.368000000000D+05-2.756714820862D-07 1.961423316697D+00 1.862645149231D-08
    9.766478167532D-01 3.395312500000D+02 1.490159691247D+00-8.547141737047D-09
   -3.103700710164D-10 1.000000000000D+00 1.539000000000D+03 0.000000000000D+00
    2.800000000000D+00 0.000000000000D+00-5.587935447693D-09 1.060000000000D+02
    1.296180000000D+05 4.000000000000D+00
22 09  7  6 14  0  0.0 1.960820518434D-04-7.958078640513D-13 0.000000000000D+00
    1.200000000000D+01 8.206250000000D+01 4.756626704023D-09-2.249611206045D+00
    4.179775714874D-06 5.144773283973D-03 9.650364518166D-06 5.153662006378D+03
    1.368000000000D+05 8.568167686462D-08-6.565332617599D-02 5.029141902924D-08
    9.398304257896D-01 1.793750000000D+02-1.893989699679D+00-7.897828976278D-09
   -8.607501394126D-11 1.000000000000D+00 1.539000000000D+03 0.000000000000D+00
    2.000000000000D+00 0.000000000000D+00-1.769512891769D-08 1.200000000000D+01
    1.296180000000D+05 4.000000000000D+00
21 09  7  6 14  0  0.0 4.305038601160D-06-2.160049916711D-12 0.000000000000D+00
    4.700000000000D+01-1.246875000000D+01 5.392724628627D-09 5.898530314607D-02
   -4.991888999939D-07 1.546061597764D-02 6.217509508133D-06 5.153595108032D+03
    1.368000000000D+05 1.192092895508D-07-1.129272785761D+00 2.402812242508D-07
    9.334815354129D-01 2.472500000000D+02-2.582628208420D+00-8.542141528768D-09
   -2.767972440020D-10 1.000000000000D+00 1.539000000000D+03 0.000000000000D+00
    2.000000000000D+00 0.000000000000D+00-1.210719347000D-08 4.700000000000D+01
    1.296180000000D+05 4.000000000000D+00
28 09  7  6 13 59 28.0-2.583116292953D-05-1.136868377216D-13 0.000000000000D+00
    1.300000000000D+01-9.350000000000D+01 3.798729660910D-09-2.009936161315D+00
   -4.850327968597D-06 1.493839453906D-02 1.045875251293D-05 5.153655347824D+03
    1.367680000000D+05 2.570450305939D-07 3.072491075895D+00-1.192092895508D-07
    9.674508882013D-01 1.809062500000D+02-2.022933920735D+00-7.317447658209D-09
    1.675069773380D-10 1.000000000000D+00 1.539000000000D+03 0.000000000000D+00
    2.000000000000D+00 0.000000000000D+00-1.071020960808D-08 1.300000000000D+01
    1.296180000000D+05 4.000000000000D+00
19 09  7  6 14  0  0.0 2.002529799938D-05-1.364242052659D-12 0.000000000000D+00
    4.700000000000D+01 1.759375000000D+01 4.689838207729D-09 3.136063902884D+00
    9.983777999878D-07 5.724180489779D-03 6.370246410370D-06 5.153618236542D+03
    1.368000000000D+05-1.676380634308D-08-2.120841847587D+00 5.587935447693D-08
    9.572065366372D-01 2.537812500000D+02-3.324200630414D-01-7.919972755798D-09
    4.789485215569D-10 1.000000000000D+00 1.539000000000D+03 0.000000000000D+00
    2.000000000000D+00 0.000000000000D+00-1.443549990654D-08 4.700000000000D+01
    1.296180000000D+05 4.000000000000D+00
 9 09  7  6 13 59 44.0 6.503751501441D-05 2.046363078989D-12 0.000000000000D+00
    3.300000000000D+01-7.496875000000D+01 4.435541900981D-09 5.593467861245D-02
   -3.773719072342D-06 2.073380758520D-02 2.546235918999D-06 5.153632385254D+03
    1.367840000000D+05-2.756714820862D-07 1.961423464452D+00 1.862645149231D-08
    9.766478167532D-01 3.395312500000D+02 1.490159303573D+00-8.547141737047D-09
   -3.103700710164D-10 1.000000000000D+00 1.539000000000D+03 0.000000000000D+00
    2.000000000000D+00 0.000000000000D+00-5.587935447693D-09 3.300000000000D+01
    1.309680000000D+05 4.000000000000D+00
14 09  7  6 14  0  0.0-8.406210690737D-05 5.684341886081D-12 0.000000000000D+00
    8.400000000000D+01 9.056250000000D+01 4.108028258723D-09-3.056358195255D+00
    4.749745130539D-06 4.573100944981D-03 2.460554242134D-06 5.153620513916D+03
    1.368000000000D+05 6.519258022308D-08 9.859782921706D-01-1.285225152969D-07
    9.881793811577D-01 3.448437500000D+02-2.166695665971D+00-7.926758752748D-09
    1.610781381224D-10 1.000000000000D+00 1.539000000000D+03 0.000000000000D+00
    2.000000000000D+00 0.000000000000D+00-9.313225746155D-09 8.400000000000D+01
    1.327320000000D+05 4.000000000000D+00
